STARLINK-2002           
1 47597U 21009BB  23155.75694789  .00013647  00000+0  93301-3 0  9994
2 47597  53.0549 250.8912 0000847  96.1492 263.9593 15.06410915128445
STARLINK-2003           
1 47598U 21009BC  23156.16516796  .00001821  00000+0  14114-3 0  9998
2 47598  53.0533 219.0617 0000766 105.9533 254.1541 15.06394185129540
STARLINK-2004           
1 47599U 21009BD  23156.35406063  .00001847  00000+0  14279-3 0  9995
2 47599  53.0526 208.2141 0000996  80.2646 279.8455 15.06412380129704
STARLINK-2005           
1 47600U 21009BE  23156.11448362  .00000284  00000+0  37926-4 0  9999
2 47600  53.0522 209.2592 0000594  91.8350 268.2707 15.06393076129676
STARLINK-2006           
1 47601U 21009BF  23156.15871277  .00002025  00000+0  15477-3 0  9990
2 47601  53.0548 209.0916 0001086  79.5584 280.5527 15.06404918129677
STARLINK-2007           
1 47602U 21009BG  23155.91453030  .00009082  00000+0  62800-3 0  9999
2 47602  53.0528 220.1862 0000939  95.1573 264.9523 15.06389807128881
STARLINK-2008           
1 47603U 21009BH  23156.25823568  .00017523  00000+0  11918-2 0  9997
2 47603  53.0536 248.6434 0000859  84.9549 275.1538 15.06418094129119
STARLINK-2021           
1 47604U 21009BJ  23156.18727894  .00005768  00000+0  40570-3 0  9990
2 47604  53.0522 218.9616 0000890  93.3052 266.8038 15.06405577129535
STARLINK-2024           
1 47606U 21009BL  23156.19095977  .00006556  00000+0  45845-3 0  9999
2 47606  53.0523 218.9470 0000925  85.7569 274.3526 15.06411786129538
STARLINK-2025           
1 47607U 21009BM  23156.17714279  .00018177  00000+0  11399-2 0  9999
2 47607  53.0536 218.4259 0003379 359.1848   0.9137 15.09387772129538
FLOCK 4S-42             
1 47612U 21006EQ  23155.89978644  .00011459  00000+0  39909-3 0  9992
2 47612  97.3907 214.9423 0009273 129.3654 230.8409 15.29791463130842
TJS-6                   
1 47613U 21010A   23155.85276778  .00000058  00000+0  00000+0 0  9992
2 47613   0.2479  76.2817 0002015   5.2029 297.0794  1.00275325  8698
ARCE-1B                 
1 47615U 21006EG  23156.09884204  .00018853  00000+0  58058-3 0  9997
2 47615  97.3829 216.1281 0007694 127.3469 232.8475 15.33653034130055
ARCE-1A                 
1 47616U 21006EH  23155.91040483  .00033196  00000+0  95355-3 0  9999
2 47616  97.3830 216.0918 0007824 121.7543 238.4464 15.35734411130950
FLOCK 4S-48             
1 47617U 21006EJ  23155.73677281  .00011327  00000+0  39279-3 0  9997
2 47617  97.3896 214.8772 0010214 112.4671 247.7652 15.29925196131805
STARLINK-1528           
1 47620U 21012A   23156.38447416  .00025557  00000+0  17266-2 0  9996
2 47620  53.0541 278.0757 0000146 177.0210 183.0780 15.06438772127497
STARLINK-1609           
1 47621U 21012B   23156.04537330  .00007579  00000+0  52707-3 0  9999
2 47621  53.0547 279.6027 0000756 111.0785 249.0285 15.06405324127448
STARLINK-1645           
1 47622U 21012C   23156.04074354  .00004310  00000+0  30803-3 0  9995
2 47622  53.0541 279.6070 0000939  87.9803 272.1293 15.06399784127444
STARLINK-1655           
1 47623U 21012D   23156.18589572  .00004249  00000+0  30393-3 0  9999
2 47623  53.0523 213.9655 0001037  85.9869 274.1238 15.06405028128389
STARLINK-1669           
1 47624U 21012E   23155.51644103  .00007506  00000+0  52229-3 0  9999
2 47624  53.0548 261.9721 0000522 130.4817 229.6217 15.06396131128174
STARLINK-1704           
1 47625U 21012F   23156.37984318  .00019540  00000+0  13261-2 0  9993
2 47625  53.0535 278.0900 0000705 111.5247 248.5817 15.06426639127496
STARLINK-1761           
1 47626U 21012G   23155.76893752  .00009927  00000+0  68443-3 0  9998
2 47626  53.0540 280.8376 0000927  85.5405 274.5690 15.06395512127913
STARLINK-1972           
1 47627U 21012H   23155.77951763  .00000429  00000+0  47715-4 0  9995
2 47627  53.0540 185.7899 0000953  74.5363 285.5731 15.06397864129223
STARLINK-1973           
1 47628U 21012J   23155.73849764  .00010584  00000+0  72844-3 0  9992
2 47628  53.0544 280.9663 0000788  72.0546 288.0529 15.06396850127918
STARLINK-1974           
1 47629U 21012K   23155.45561254 -.00000116  00000+0  11102-4 0  9999
2 47629  53.0533 162.2417 0001082  83.9926 276.1187 15.06399802129535
STARLINK-1983           
1 47630U 21012L   23156.47478656  .00017497  00000+0  11897-2 0  9995
2 47630  53.0531 257.7571 0000642 114.1006 246.0050 15.06428691127782
STARLINK-1992           
1 47632U 21012N   23156.06976505  .00001754  00000+0  13664-3 0  9992
2 47632  53.0542 184.4898 0000965  93.6076 266.5024 15.06388128128778
STARLINK-2009           
1 47633U 21012P   23155.75693772  .00007337  00000+0  51107-3 0  9997
2 47633  53.0549 280.9204 0001002  93.3269 266.7835 15.06389026127930
STARLINK-2010           
1 47634U 21012Q   23155.73207338  .00023061  00000+0  15627-2 0  9993
2 47634  53.0542 281.0054 0000814  75.2446 284.8633 15.06382857127904
STARLINK-2012           
1 47635U 21012R   23156.35451960 -.00000380  00000+0 -66447-5 0  9995
2 47635  53.0536 183.2091 0001272  68.7661 291.3464 15.06390771128817
STARLINK-2013           
1 47636U 21012S   23156.44898206  .00019599  00000+0  13302-2 0  9993
2 47636  53.0541 257.7859 0000788 105.2085 254.8991 15.06421970127781
STARLINK-2014           
1 47637U 21012T   23156.41950418  .00019280  00000+0  13091-2 0  9997
2 47637  53.0534 257.9178 0000689  81.7961 278.3106 15.06416149127782
STARLINK-2015           
1 47638U 21012U   23156.35084068  .00001221  00000+0  10083-3 0  9995
2 47638  53.0529 183.2282 0001138  94.2536 265.8583 15.06392485128812
STARLINK-2016           
1 47639U 21012V   23156.39738550  .00016311  00000+0  11110-2 0  9999
2 47639  53.0528 258.0188 0000787  80.8147 279.2931 15.06413377127770
STARLINK-2018           
1 47640U 21012W   23156.06012228  .00009870  00000+0  68058-3 0  9998
2 47640  53.0542 279.5321 0000697  77.5681 282.5386 15.06398351127440
STARLINK-2019           
1 47641U 21012X   23156.07070896  .00004512  00000+0  32167-3 0  9995
2 47641  53.0526 184.4867 0001091  86.1963 273.9151 15.06395124128776
STARLINK-2020           
1 47642U 21012Y   23155.73438155  .00031400  00000+0  21179-2 0  9990
2 47642  53.0541 275.9980 0000648  50.5665 309.5381 15.06393821127971
STARLINK-2022           
1 47643U 21012Z   23155.68232745  .00020036  00000+0  13595-2 0  9998
2 47643  53.0542 261.2307 0000878  84.0012 276.1077 15.06417762128183
STARLINK-2026           
1 47644U 21012AA  23155.76155959  .00010914  00000+0  75043-3 0  9990
2 47644  53.0546 280.8727 0001049  86.3622 273.7487 15.06399416127928
STARLINK-2027           
1 47645U 21012AB  23156.04817282  .00018354  00000+0  12478-2 0  9995
2 47645  53.0527 249.8268 0000248  74.0011 286.1005 15.06401980127855
STARLINK-2028           
1 47646U 21012AC  23155.96845430  .00003043  00000+0  22308-3 0  9995
2 47646  53.0518 215.1872 0000924  93.8214 266.2880 15.06401306128334
STARLINK-2030           
1 47647U 21012AD  23156.03800393  .00011461  00000+0  78699-3 0  9991
2 47647  53.0551 279.6326 0000970  94.8284 265.2816 15.06404455127447
STARLINK-2031           
1 47648U 21012AE  23156.42685673  .00015206  00000+0  10367-2 0  9995
2 47648  53.0541 257.8872 0000555  89.5563 270.5490 15.06428481127780
STARLINK-2032           
1 47649U 21012AF  23156.43055484  .00019855  00000+0  13473-2 0  9993
2 47649  53.0535 257.8662 0000778  80.6771 279.4306 15.06422083127787
STARLINK-2033           
1 47650U 21012AG  23156.28312096  .00022017  00000+0  14915-2 0  9999
2 47650  53.0532 258.5299 0001447  68.9561 291.1582 15.06422158127757
STARLINK-2035           
1 47651U 21012AH  23156.38817001  .00016709  00000+0  11373-2 0  9993
2 47651  53.0543 278.1071 0000582  76.6278 283.4776 15.06420649127499
STARLINK-2036           
1 47652U 21012AJ  23155.74681795  .00006692  00000+0  46778-3 0  9990
2 47652  53.0546 280.9389 0000957  90.4375 269.6724 15.06393753127915
STARLINK-2037           
1 47653U 21012AK  23156.40475775  .00021896  00000+0  14838-2 0  9998
2 47653  53.0530 257.9841 0000926  67.5687 292.5400 15.06412997127775
STARLINK-2038           
1 47654U 21012AL  23155.75050851  .00009313  00000+0  64347-3 0  9991
2 47654  53.0546 280.9201 0000960  77.9067 282.2030 15.06390167127919
STARLINK-2039           
1 47655U 21012AM  23155.74313095  .00023452  00000+0  15883-2 0  9993
2 47655  53.0540 280.9545 0000758  66.9306 293.1763 15.06394655127914
STARLINK-2040           
1 47656U 21012AN  23155.56067859  .00017139  00000+0  11668-2 0  9990
2 47656  53.0532 261.7735 0000926 105.7240 254.3852 15.06395644127647
STARLINK-2041           
1 47657U 21012AP  23155.63255041  .00009527  00000+0  65760-3 0  9996
2 47657  53.0541 281.4486 0000730  85.8237 274.2835 15.06398331127386
STARLINK-2042           
1 47658U 21012AQ  23156.35499610  .00018298  00000+0  12436-2 0  9995
2 47658  53.0537 278.2077 0000969  69.2922 290.8171 15.06416198127494
STARLINK-2043           
1 47659U 21012AR  23156.18174864  .00001370  00000+0  11086-3 0  9992
2 47659  53.0538 158.9882 0000858  79.8075 280.3011 15.06390607129133
STARLINK-2044           
1 47660U 21012AS  23156.20117345  .00000862  00000+0  76790-4 0  9997
2 47660  53.0546 149.5283 0001166  82.0341 278.0780 15.06394477129271
STARLINK-2051           
1 47661U 21012AT  23156.45267090  .00021880  00000+0  14824-2 0  9999
2 47661  53.0541 257.7697 0000870  73.6468 286.4616 15.06420816127787
STARLINK-2052           
1 47662U 21012AU  23155.57079281  .00005655  00000+0  39831-3 0  9993
2 47662  53.0543 261.7273 0001067 134.1350 225.9727 15.06388503128178
STARLINK-2053           
1 47663U 21012AV  23156.29789841  .00002458  00000+0  18392-3 0  9991
2 47663  53.0540 178.7827 0000913  70.3040 289.8048 15.06389217128879
STARLINK-2054           
1 47664U 21012AW  23156.10250507  .00007488  00000+0  52094-3 0  9999
2 47664  53.0550 259.3410 0001081 125.6435 234.4655 15.06407511127736
